satname,norad_id,inclination_deg,eccentricity,mean_motion_rev_per_day,perigee_km,apogee_km,l1,l2
STARLINK-1555,46032,53.0561,0.0001447,15.06391547,546.2353636018424,548.2395669720972,1 46032U 20055F   26047.78908863 -.00001160  00000+0 -59008-4 0  9990,2 46032  53.0561 220.4432 0001447  87.1109 273.0046 15.06391547305748
STARLINK-1556,46033,53.0547,0.0001351,15.0639348,546.2959235814278,548.1671581611727,1 46033U 20055G   26047.70431342 -.00000208  00000+0  49218-5 0  9990,2 46033  53.0547 220.8232 0001351  96.8761 263.2381 15.06393480305707
STARLINK-1557,46034,53.0556,0.0001357,15.06395443,546.285752827579,548.1652962167345,1 46034U 20055H   26047.70799602 -.00000288  00000+0 -43373-6 0  9993,2 46034  53.0556 220.8075 0001357 100.1153 259.9989 15.06395443305700
STARLINK-1558,46035,53.0559,0.0001612,15.06395325,546.1095176797571,548.3422546742604,1 46035U 20055J   26047.78171867 -.00000584  00000+0 -20293-4 0  9992,2 46035  53.0559 220.4757 0001612 103.6457 256.4711 15.06395325305744
STARLINK-1560,46036,53.0567,0.0001293,15.06397831,546.3227571907746,548.1136540469479,1 46036U 20055K   26047.83331330  .00000399  00000+0  45711-4 0  9996,2 46036  53.0567 220.2445 0001293  94.1333 265.9804 15.06397831305751
STARLINK-1567,46038,53.0565,0.0001288,15.06396096,546.3315367264559,548.1155095972226,1 46038U 20055M   26047.71168074 -.00000038  00000+0  16340-4 0  9995,2 46038  53.0565 220.7908 0001288  84.0403 276.0733 15.06396096305723
STARLINK-1569,46039,53.0555,0.0001499,15.06389798,546.204711339502,548.2809402112707,1 46039U 20055N   26047.78540237 -.00000236  00000+0  30293-5 0  9992,2 46039  53.0555 220.4592 0001499  93.3052 266.8108 15.06389798305731
STARLINK-1582,46043,53.0556,0.0001397,15.06395718,546.2572086557129,548.1921547095753,1 46043U 20055S   26047.79276917 -.00000600  00000+0 -21370-4 0  9990,2 46043  53.0556 220.4266 0001397  85.5832 274.5316 15.06395718305737
STARLINK-1591,46045,53.0553,0.0001355,15.06407434,546.2503922503056,548.1271555350313,1 46045U 20055U   26047.75221151  .00000206  00000+0  32698-4 0  9993,2 46045  53.0553 220.6088 0001355  99.2012 260.9130 15.06407434305716
STARLINK-1524,46047,53.088,0.0001904,15.14322024,521.7236214053564,524.351588694959,1 46047U 20055W   26047.91668981  .01334140  00000+0  66271-1 0  9998,2 46047  53.0880 209.7397 0001904  82.8912  57.8805 15.14322024  5730
STARLINK-1527,46048,53.0788,0.0001981,15.12278574,527.884610043513,530.621317947247,1 46048U 20055X   26047.91668981  .01526936  00000+0  80476-1 0  9998,2 46048  53.0788 209.8080 0001981  70.2940  52.6758 15.12278574  5632
STARLINK-1540,46051,53.0876,0.0001453,15.1481087,520.5502773459375,522.555327202479,1 46051U 20055AA  26047.83337963  .00113575  00000+0  59650-2 0  9997,2 46051  53.0876 210.1104 0001453 115.5898 136.0223 15.14810870  5777
STARLINK-1541,46052,53.0915,0.0001881,15.1545883,518.2884811947943,520.883404565906,1 46052U 20055AB  26047.91668981  .00116404  00000+0  59998-2 0  9993,2 46052  53.0915 209.6319 0001881  75.9649  44.7889 15.15458830  5825
STARLINK-1543,46053,53.0849,0.0001014,15.14360873,522.21981017697,523.619344450849,1 46053U 20055AC  26047.91668981  .00112434  00000+0  59815-2 0  9991,2 46053  53.0849 209.7431 0001014  68.8918 330.2689 15.14360873  5825
STARLINK-1548,46054,53.0872,7.69e-05,15.14590831,521.690404221773,522.7516792885954,1 46054U 20055AD  26047.91668981  .00112512  00000+0  59469-2 0  9994,2 46054  53.0872 209.7235 0000769 102.1907 267.5704 15.14590831  5278
STARLINK-1554,46055,53.0847,0.000147,15.1400065,522.9995536363631,525.0287860803,1 46055U 20055AE  26047.91668981  .00114993  00000+0  61773-2 0  9991,2 46055  53.0847 209.7259 0001470  66.4751  22.5277 15.14000650  5837
STARLINK-1564,46058,53.086,7.28e-05,15.14409972,522.2680300563288,523.2728021761159,1 46058U 20055AH  26047.91668981  .00119902  00000+0  63623-2 0  9995,2 46058  53.0860 210.2004 0000728  73.8072 308.4885 15.14409972  5823
STARLINK-1570,46059,53.0789,0.0001784,15.12292586,527.9780266713024,530.4425681870252,1 46059U 20055AJ  26047.83337963  .01542899  00000+0  81214-1 0  9991,2 46059  53.0789 210.1839 0001784  60.8608  29.5499 15.12292586  5824
STARLINK-1572,46060,53.0815,0.0001741,15.13336801,524.8304978778988,527.2345297025995,1 46060U 20055AK  26047.91668981  .00114774  00000+0  62816-2 0  9993,2 46060  53.0815 209.7649 0001741  97.7556 128.5779 15.13336801  5835
STARLINK-1573,46061,53.0838,0.0001668,15.1332467,524.9177885698136,527.221031828255,1 46061U 20055AL  26047.91668981  .01524721  00000+0  76943-1 0  9997,2 46061  53.0838 209.8188 0001668 108.9012 128.5819 15.13324670  5836
STARLINK-1577,46063,53.0848,0.0001645,15.13581179,524.1537299999673,526.4249572670224,1 46063U 20055AN  26047.91668981  .01502535  00000+0  75389-1 0  9991,2 46063  53.0848 209.7758 0001645  72.9339  28.2398 15.13581179  5688
STARLINK-1583,46064,53.0829,0.0001227,15.13292102,525.3213098539,527.0156264157804,1 46064U 20055AP  26047.91668981  .01541677  00000+0  77781-1 0  9990,2 46064  53.0829 209.7856 0001227 118.8013 157.0484 15.13292102  5785
STARLINK-1525,46066,53.055,0.0001372,15.06386063,546.3041094826322,548.2044368479883,1 46066U 20055AR  26047.80659221  .00000514  00000+0  53407-4 0  9998,2 46066  53.0550 190.3656 0001372 104.6131 255.5010 15.06386063306152
STARLINK-1536,46070,53.0555,0.0001242,15.06387362,546.3901587572227,548.1104249605196,1 46070U 20055AV  26047.65178624  .00000317  00000+0  40210-4 0  9998,2 46070  53.0555 191.0607 0001242  79.6892 280.4237 15.06387362306147
STARLINK-1542,46073,53.0543,0.0001169,15.06406409,546.3823443957808,548.0014862961898,1 46073U 20055AY  26047.77710427 -.00000095  00000+0  12543-4 0  9999,2 46073  53.0543 190.4973 0001169  94.1879 265.9244 15.06406409306152
STARLINK-1549,46074,53.0539,0.0001564,15.06390144,546.1586360845558,548.3248945623491,1 46074U 20055AZ  26047.76236909 -.00000736  00000+0 -30553-4 0  9991,2 46074  53.0539 190.5631 0001564 103.3689 256.7474 15.06390144306141
STARLINK-1551,46075,53.0558,0.0001313,15.06396267,546.3136993013768,548.1322988371321,1 46075U 20055BA  26047.78817041 -.00000074  00000+0  13920-4 0  9999,2 46075  53.0558 190.4485 0001313  78.4571 281.6565 15.06396267306154
STARLINK-1552,46076,53.0566,0.0001334,15.06393694,546.3070409116108,548.1547290633252,1 46076U 20055BB  26047.81396902 -.00000655  00000+0 -25082-4 0  9990,2 46076  53.0566 190.3335 0001334  74.7662 285.3475 15.06393694306141
